SAR-LUPE 2              
1 31797U 07030A   26147.92691190  .00012735  00000+0  25562-3 0  9994
2 31797  98.1025 249.9059 0012761 175.6946 184.4414 15.46758264 53807
SAPPHIRE                
1 39088U 13009C   26147.94450061  .00000110  00000+0  53533-4 0  9994
2 39088  98.4256 327.8818 0010272 313.7323  46.3011 14.35234256693676
PRAETORIAN SDA_602      
1 65565U 25203A   26147.78677827  .00000086  00000+0  66441-4 0  9999
2 65565  81.3047  29.6665 0004964 246.8963 113.1671 13.84340908 35870
PRAETORIAN SDA_603      
1 65566U 25203B   26147.80701512  .00000256  00000+0  21980-3 0  9999
2 65566  81.3053  29.5493 0008535 247.1595 112.8660 13.83903422 35889
PRAETORIAN SDA_604      
1 65567U 25203C   26147.81410230  .00000127  00000+0  10532-3 0  9993
2 65567  81.3070  29.9242 0004569 256.0927 103.9721 13.83044120 35864
PRAETORIAN SDA_605      
1 65568U 25203D   26147.78512659  .00000111  00000+0  90311-4 0  9995
2 65568  81.3034  29.6340 0007238 243.2127 116.8289 13.83431958 35879
PRAETORIAN SDA_606      
1 65569U 25203E   26147.76727798  .00000106  00000+0  86044-4 0  9998
2 65569  81.3070  29.8634 0004872 243.3348 116.7309 13.83404738 35862
PRAETORIAN SDA_607      
1 65570U 25203F   26147.78823784  .00000283  00000+0  24287-3 0  9990
2 65570  81.3053  29.5391 0007781 248.2099 111.8230 13.84282762 35884
PRAETORIAN SDA_608      
1 65571U 25203G   26147.75875368  .00000109  00000+0  87526-4 0  9996
2 65571  81.3023  29.7197 0005064 254.7812 105.2785 13.83814187 35866
PRAETORIAN SDA_609      
1 65572U 25203H   26147.77027390  .00000239  00000+0  20350-3 0  9998
2 65572  81.3066  29.6972 0005913 245.8596 114.1943 13.84282780 35872
PRAETORIAN SDA_610      
1 65573U 25203J   26147.73902813  .00000088  00000+0  68994-4 0  9996
2 65573  81.3023  29.6969 0005678 250.8089 109.2453 13.83850126 35867
PRAETORIAN SDA_611      
1 65574U 25203K   26147.73179224  .00000362  00000+0  31924-3 0  9996
2 65574  81.3033  29.8524 0004645 260.7473  99.3158 13.83307354 35858
PRAETORIAN SDA_612      
1 65575U 25203L   26147.74692272  .00000296  00000+0  25131-3 0  9990
2 65575  81.3046  29.4753 0008238 247.9943 112.0339 13.85035824 35883
PRAETORIAN SDA_613      
1 65576U 25203M   26147.80285418  .00000134  00000+0  11254-3 0  9990
2 65576  81.3016  29.7676 0004745 246.8100 113.2556 13.82763305 35861
PRAETORIAN SDA_614      
1 65577U 25203N   26147.80451528  .00000110  00000+0  87168-4 0  9990
2 65577  81.3030  29.4941 0006183 244.8017 115.2499 13.84776084 35894
PRAETORIAN SDA_615      
1 65578U 25203P   26147.77636498  .00000277  00000+0  23698-3 0  9999
2 65578  81.3035  29.4713 0007967 244.7066 115.3266 13.84435226 35883
PRAETORIAN SDA_616      
1 65579U 25203Q   26147.73039052  .00000183  00000+0  15569-3 0  9993
2 65579  81.3080  29.9852 0004576 257.4934 102.5711 13.83264854 35857
PRAETORIAN SDA_617      
1 65580U 25203R   26147.75025896  .00000077  00000+0  59969-4 0  9993
2 65580  81.3053  29.7998 0006447 245.4819 114.5665 13.83148237 35864
PRAETORIAN SDA_618      
1 65581U 25203S   26147.81832992  .00000150  00000+0  12283-3 0  9993
2 65581  81.3039  29.3701 0008767 246.9859 113.0373 13.84773230 35895
PRAETORIAN SDA_619      
1 65582U 25203T   26147.76936848  .00000223  00000+0  18993-3 0  9998
2 65582  81.3059  29.6806 0007045 244.3161 115.7269 13.83942476 36504
PRAETORIAN SDA_620      
1 65583U 25203U   26147.79427471  .00000264  00000+0  22821-3 0  9999
2 65583  81.3047  29.6749 0006660 241.7233 118.3252 13.83616512 35870
PRAETORIAN SDA_621      
1 65584U 25203V   26147.91536640  .00000146  00000+0  12138-3 0  9992
2 65584  81.3037  29.4884 0006477 238.7486 121.3036 13.83798559 35898
PRAETORIAN SDA_601      
1 65585U 25203W   26147.73241487  .00000211  00000+0  18141-3 0  9998
2 65585  81.3063  29.9316 0004514 259.3310 100.7338 13.83270488 35856
